CCSDS_OMM_VERS = 2.0
CREATION_DATE  = 
ORIGINATOR     = 

OBJECT_NAME    = STARLINK-35676
OBJECT_ID      = 2026-003M
CENTER_NAME    = EARTH
REF_FRAME      = TEME
TIME_SYSTEM    = UTC
MEAN_ELEMENT_THEORY = SGP/SGP4

EPOCH          = 2026-01-11T22:34:53.424768
MEAN_MOTION    = 16.01646204
ECCENTRICITY   = .00086
INCLINATION    = 43.0100
RA_OF_ASC_NODE = 74.1123
ARG_OF_PERICENTER = 321.9700
MEAN_ANOMALY   = 11.3500

EPHEMERIS_TYPE = 0
CLASSIFICATION_TYPE = U
NORAD_CAT_ID   = 67345
ELEMENT_SET_NO = 999
REV_AT_EPOCH   = 1
BSTAR          = 0
MEAN_MOTION_DOT = -.2702E-4
MEAN_MOTION_DDOT = .8542696E-5

CCSDS_OMM_VERS = 2.0
CREATION_DATE  = 
ORIGINATOR     = 

OBJECT_NAME    = STARLINK-36472
OBJECT_ID      = 2026-003N
CENTER_NAME    = EARTH
REF_FRAME      = TEME
TIME_SYSTEM    = UTC
MEAN_ELEMENT_THEORY = SGP/SGP4

EPOCH          = 2026-01-11T22:34:53.424768
MEAN_MOTION    = 16.01646204
ECCENTRICITY   = .00086
INCLINATION    = 43.0100
RA_OF_ASC_NODE = 74.1123
ARG_OF_PERICENTER = 321.9700
MEAN_ANOMALY   = 11.3500

EPHEMERIS_TYPE = 0
CLASSIFICATION_TYPE = U
NORAD_CAT_ID   = 67346
ELEMENT_SET_NO = 999
REV_AT_EPOCH   = 1
BSTAR          = 0
MEAN_MOTION_DOT = -.2702E-4
MEAN_MOTION_DDOT = .8542696E-5

CCSDS_OMM_VERS = 2.0
CREATION_DATE  = 
ORIGINATOR     = 

OBJECT_NAME    = STARLINK-36420
OBJECT_ID      = 2026-003P
CENTER_NAME    = EARTH
REF_FRAME      = TEME
TIME_SYSTEM    = UTC
MEAN_ELEMENT_THEORY = SGP/SGP4

EPOCH          = 2026-01-11T22:34:53.424768
MEAN_MOTION    = 16.01646204
ECCENTRICITY   = .00086
INCLINATION    = 43.0100
RA_OF_ASC_NODE = 74.1123
ARG_OF_PERICENTER = 321.9700
MEAN_ANOMALY   = 11.3500

EPHEMERIS_TYPE = 0
CLASSIFICATION_TYPE = U
NORAD_CAT_ID   = 67347
ELEMENT_SET_NO = 999
REV_AT_EPOCH   = 1
BSTAR          = 0
MEAN_MOTION_DOT = -.2702E-4
MEAN_MOTION_DDOT = .8542696E-5

CCSDS_OMM_VERS = 2.0
CREATION_DATE  = 
ORIGINATOR     = 

OBJECT_NAME    = STARLINK-36467
OBJECT_ID      = 2026-003Q
CENTER_NAME    = EARTH
REF_FRAME      = TEME
TIME_SYSTEM    = UTC
MEAN_ELEMENT_THEORY = SGP/SGP4

EPOCH          = 2026-01-11T22:34:53.424768
MEAN_MOTION    = 16.01646204
ECCENTRICITY   = .00086
INCLINATION    = 43.0100
RA_OF_ASC_NODE = 74.1123
ARG_OF_PERICENTER = 321.9700
MEAN_ANOMALY   = 11.3500

EPHEMERIS_TYPE = 0
CLASSIFICATION_TYPE = U
NORAD_CAT_ID   = 67348
ELEMENT_SET_NO = 999
REV_AT_EPOCH   = 1
BSTAR          = 0
MEAN_MOTION_DOT = -.2702E-4
MEAN_MOTION_DDOT = .8542696E-5

CCSDS_OMM_VERS = 2.0
CREATION_DATE  = 
ORIGINATOR     = 

OBJECT_NAME    = STARLINK-36457
OBJECT_ID      = 2026-003R
CENTER_NAME    = EARTH
REF_FRAME      = TEME
TIME_SYSTEM    = UTC
MEAN_ELEMENT_THEORY = SGP/SGP4

EPOCH          = 2026-01-11T22:34:53.424768
MEAN_MOTION    = 16.01646204
ECCENTRICITY   = .00086
INCLINATION    = 43.0100
RA_OF_ASC_NODE = 74.1123
ARG_OF_PERICENTER = 321.9700
MEAN_ANOMALY   = 11.3500

EPHEMERIS_TYPE = 0
CLASSIFICATION_TYPE = U
NORAD_CAT_ID   = 67349
ELEMENT_SET_NO = 999
REV_AT_EPOCH   = 1
BSTAR          = 0
MEAN_MOTION_DOT = -.2702E-4
MEAN_MOTION_DDOT = .8542696E-5

CCSDS_OMM_VERS = 2.0
CREATION_DATE  = 
ORIGINATOR     = 

OBJECT_NAME    = STARLINK-36475
OBJECT_ID      = 2026-003S
CENTER_NAME    = EARTH
REF_FRAME      = TEME
TIME_SYSTEM    = UTC
MEAN_ELEMENT_THEORY = SGP/SGP4

EPOCH          = 2026-01-11T22:34:53.424768
MEAN_MOTION    = 16.01646204
ECCENTRICITY   = .00086
INCLINATION    = 43.0100
RA_OF_ASC_NODE = 74.1123
ARG_OF_PERICENTER = 321.9700
MEAN_ANOMALY   = 11.3500

EPHEMERIS_TYPE = 0
CLASSIFICATION_TYPE = U
NORAD_CAT_ID   = 67350
ELEMENT_SET_NO = 999
REV_AT_EPOCH   = 1
BSTAR          = 0
MEAN_MOTION_DOT = -.2702E-4
MEAN_MOTION_DDOT = .8542696E-5

CCSDS_OMM_VERS = 2.0
CREATION_DATE  = 
ORIGINATOR     = 

OBJECT_NAME    = STARLINK-36478
OBJECT_ID      = 2026-003T
CENTER_NAME    = EARTH
REF_FRAME      = TEME
TIME_SYSTEM    = UTC
MEAN_ELEMENT_THEORY = SGP/SGP4

EPOCH          = 2026-01-11T22:34:53.424768
MEAN_MOTION    = 16.01646204
ECCENTRICITY   = .00086
INCLINATION    = 43.0100
RA_OF_ASC_NODE = 74.1123
ARG_OF_PERICENTER = 321.9700
MEAN_ANOMALY   = 11.3500

EPHEMERIS_TYPE = 0
CLASSIFICATION_TYPE = U
NORAD_CAT_ID   = 67351
ELEMENT_SET_NO = 999
REV_AT_EPOCH   = 1
BSTAR          = 0
MEAN_MOTION_DOT = -.2702E-4
MEAN_MOTION_DDOT = .8542696E-5

CCSDS_OMM_VERS = 2.0
CREATION_DATE  = 
ORIGINATOR     = 

OBJECT_NAME    = STARLINK-36479
OBJECT_ID      = 2026-003U
CENTER_NAME    = EARTH
REF_FRAME      = TEME
TIME_SYSTEM    = UTC
MEAN_ELEMENT_THEORY = SGP/SGP4

EPOCH          = 2026-01-11T22:34:53.424768
MEAN_MOTION    = 16.01646204
ECCENTRICITY   = .00086
INCLINATION    = 43.0100
RA_OF_ASC_NODE = 74.1123
ARG_OF_PERICENTER = 321.9700
MEAN_ANOMALY   = 11.3500

EPHEMERIS_TYPE = 0
CLASSIFICATION_TYPE = U
NORAD_CAT_ID   = 67352
ELEMENT_SET_NO = 999
REV_AT_EPOCH   = 1
BSTAR          = 0
MEAN_MOTION_DOT = -.2702E-4
MEAN_MOTION_DDOT = .8542696E-5

CCSDS_OMM_VERS = 2.0
CREATION_DATE  = 
ORIGINATOR     = 

OBJECT_NAME    = STARLINK-36474
OBJECT_ID      = 2026-003V
CENTER_NAME    = EARTH
REF_FRAME      = TEME
TIME_SYSTEM    = UTC
MEAN_ELEMENT_THEORY = SGP/SGP4

EPOCH          = 2026-01-11T22:34:53.424768
MEAN_MOTION    = 16.01646204
ECCENTRICITY   = .00086
INCLINATION    = 43.0100
RA_OF_ASC_NODE = 74.1123
ARG_OF_PERICENTER = 321.9700
MEAN_ANOMALY   = 11.3500

EPHEMERIS_TYPE = 0
CLASSIFICATION_TYPE = U
NORAD_CAT_ID   = 67353
ELEMENT_SET_NO = 999
REV_AT_EPOCH   = 1
BSTAR          = 0
MEAN_MOTION_DOT = -.2702E-4
MEAN_MOTION_DDOT = .8542696E-5

CCSDS_OMM_VERS = 2.0
CREATION_DATE  = 
ORIGINATOR     = 

OBJECT_NAME    = STARLINK-36448
OBJECT_ID      = 2026-003W
CENTER_NAME    = EARTH
REF_FRAME      = TEME
TIME_SYSTEM    = UTC
MEAN_ELEMENT_THEORY = SGP/SGP4

EPOCH          = 2026-01-11T22:34:53.424768
MEAN_MOTION    = 16.01646204
ECCENTRICITY   = .00086
INCLINATION    = 43.0100
RA_OF_ASC_NODE = 74.1123
ARG_OF_PERICENTER = 321.9700
MEAN_ANOMALY   = 11.3500

EPHEMERIS_TYPE = 0
CLASSIFICATION_TYPE = U
NORAD_CAT_ID   = 67354
ELEMENT_SET_NO = 999
REV_AT_EPOCH   = 1
BSTAR          = 0
MEAN_MOTION_DOT = -.2702E-4
MEAN_MOTION_DDOT = .8542696E-5

CCSDS_OMM_VERS = 2.0
CREATION_DATE  = 
ORIGINATOR     = 

OBJECT_NAME    = STARLINK-36477
OBJECT_ID      = 2026-003X
CENTER_NAME    = EARTH
REF_FRAME      = TEME
TIME_SYSTEM    = UTC
MEAN_ELEMENT_THEORY = SGP/SGP4

EPOCH          = 2026-01-11T22:34:53.424768
MEAN_MOTION    = 16.01646204
ECCENTRICITY   = .00086
INCLINATION    = 43.0100
RA_OF_ASC_NODE = 74.1123
ARG_OF_PERICENTER = 321.9700
MEAN_ANOMALY   = 11.3500

EPHEMERIS_TYPE = 0
CLASSIFICATION_TYPE = U
NORAD_CAT_ID   = 67355
ELEMENT_SET_NO = 999
REV_AT_EPOCH   = 1
BSTAR          = 0
MEAN_MOTION_DOT = -.2702E-4
MEAN_MOTION_DDOT = .8542696E-5

CCSDS_OMM_VERS = 2.0
CREATION_DATE  = 
ORIGINATOR     = 

OBJECT_NAME    = STARLINK-36429
OBJECT_ID      = 2026-003Y
CENTER_NAME    = EARTH
REF_FRAME      = TEME
TIME_SYSTEM    = UTC
MEAN_ELEMENT_THEORY = SGP/SGP4

EPOCH          = 2026-01-11T22:34:53.424768
MEAN_MOTION    = 16.01646204
ECCENTRICITY   = .00086
INCLINATION    = 43.0100
RA_OF_ASC_NODE = 74.1123
ARG_OF_PERICENTER = 321.9700
MEAN_ANOMALY   = 11.3500

EPHEMERIS_TYPE = 0
CLASSIFICATION_TYPE = U
NORAD_CAT_ID   = 67356
ELEMENT_SET_NO = 999
REV_AT_EPOCH   = 1
BSTAR          = 0
MEAN_MOTION_DOT = -.2702E-4
MEAN_MOTION_DDOT = .8542696E-5

