STARLINK-35676          
1 67345U 26003M   26011.94089612 -.00002702  85427-5  00000+0 0  9997
2 67345  43.0100  74.1123 0008600 321.9700  11.3500 16.01646204    10
STARLINK-36472          
1 67346U 26003N   26011.94089612 -.00002702  85427-5  00000+0 0  9998
2 67346  43.0100  74.1123 0008600 321.9700  11.3500 16.01646204    11
STARLINK-36420          
1 67347U 26003P   26011.94089612 -.00002702  85427-5  00000+0 0  9999
2 67347  43.0100  74.1123 0008600 321.9700  11.3500 16.01646204    12
STARLINK-36467          
1 67348U 26003Q   26011.94089612 -.00002702  85427-5  00000+0 0  9990
2 67348  43.0100  74.1123 0008600 321.9700  11.3500 16.01646204    13
STARLINK-36457          
1 67349U 26003R   26011.94089612 -.00002702  85427-5  00000+0 0  9991
2 67349  43.0100  74.1123 0008600 321.9700  11.3500 16.01646204    14
STARLINK-36475          
1 67350U 26003S   26011.94089612 -.00002702  85427-5  00000+0 0  9993
2 67350  43.0100  74.1123 0008600 321.9700  11.3500 16.01646204    16
STARLINK-36478          
1 67351U 26003T   26011.94089612 -.00002702  85427-5  00000+0 0  9994
2 67351  43.0100  74.1123 0008600 321.9700  11.3500 16.01646204    17
STARLINK-36479          
1 67352U 26003U   26011.94089612 -.00002702  85427-5  00000+0 0  9995
2 67352  43.0100  74.1123 0008600 321.9700  11.3500 16.01646204    18
STARLINK-36474          
1 67353U 26003V   26011.94089612 -.00002702  85427-5  00000+0 0  9996
2 67353  43.0100  74.1123 0008600 321.9700  11.3500 16.01646204    19
STARLINK-36448          
1 67354U 26003W   26011.94089612 -.00002702  85427-5  00000+0 0  9997
2 67354  43.0100  74.1123 0008600 321.9700  11.3500 16.01646204    10
STARLINK-36477          
1 67355U 26003X   26011.94089612 -.00002702  85427-5  00000+0 0  9998
2 67355  43.0100  74.1123 0008600 321.9700  11.3500 16.01646204    11
STARLINK-36429          
1 67356U 26003Y   26011.94089612 -.00002702  85427-5  00000+0 0  9999
2 67356  43.0100  74.1123 0008600 321.9700  11.3500 16.01646204    12
